start=new Date('2022-11-04T00:00:00.000Z').valueOf();
sats=[{"NORAD_CAT_ID":"52707","SEMIMAJOR_AXIS":"6917.898","RA_OF_ASC_NODE":"222.3447","BSTAR":"0.00001311500000","MEAN_ELEMENT_THEORY":"SGP4","ECCENTRICITY":"0.00021960","REV_AT_EPOCH":"2681","RCS_SIZE":"LARGE","REF_FRAME":"TEME","MEAN_ANOMALY":"316.9900","ELEMENT_SET_NO":"999","CENTER_NAME":"EARTH","OBJECT_TYPE":"PAYLOAD","MEAN_MOTION_DOT":"-0.00000080","TLE_LINE1":"1 52707U 22053BD  22307.14518283 -.00000080  00000-0  13115-4 0  9993","PERIAPSIS":"538.244","INCLINATION":"53.2189","GP_ID":"216834750","LAUNCH_DATE":"2022-05-18","MEAN_MOTION_DDOT":"0.0000000000000","TIME_SYSTEM":"UTC","EPOCH":"2022-11-03T03:29:03.796512","FILE":"3643813","PERIOD":"95.438","OBJECT_ID":"2022-053BD","CLASSIFICATION_TYPE":"U","MEAN_MOTION":"15.08834333","TLE_LINE2":"2 52707  53.2189 222.3447 0002196  43.1264 316.9900 15.08834333 26816","COUNTRY_CODE":"US","DECAY_DATE":null,"APOAPSIS":"541.282","SITE":"AFETR","OBJECT_NAME":"STARLINK-4007","EPHEMERIS_TYPE":"0","ARG_OF_PERICENTER":"43.1264"},{"CENTER_NAME":"EARTH","OBJECT_TYPE":"PAYLOAD","MEAN_MOTION_DOT":"0.00025939","TLE_LINE1":"1 52708U 22053BE  22307.84069616  .00025939  00000-0  16407-2 0  9996","PERIAPSIS":"537.803","MEAN_ANOMALY":"330.2184","ELEMENT_SET_NO":"999","ECCENTRICITY":"0.00026970","MEAN_ELEMENT_THEORY":"SGP4","REV_AT_EPOCH":"2706","RCS_SIZE":"LARGE","REF_FRAME":"TEME","NORAD_CAT_ID":"52708","SEMIMAJOR_AXIS":"6917.803","RA_OF_ASC_NODE":"219.2085","BSTAR":"0.00164070000000","MEAN_MOTION":"15.08865159","COUNTRY_CODE":"US","TLE_LINE2":"2 52708  53.2180 219.2085 0002697  29.8962 330.2184 15.08865159 27064","DECAY_DATE":null,"APOAPSIS":"541.534","SITE":"AFETR","OBJECT_NAME":"STARLINK-3962","EPHEMERIS_TYPE":"0","ARG_OF_PERICENTER":"29.8962","FILE":"3644033","OBJECT_ID":"2022-053BE","PERIOD":"95.436","CLASSIFICATION_TYPE":"U","LAUNCH_DATE":"2022-05-18","MEAN_MOTION_DDOT":"0.0000000000000","TIME_SYSTEM":"UTC","EPOCH":"2022-11-03T20:10:36.148224","INCLINATION":"53.2180","GP_ID":"216864172"},{"CLASSIFICATION_TYPE":"U","PERIOD":"95.438","OBJECT_ID":"2022-062A","FILE":"3644033","DECAY_DATE":null,"TLE_LINE2":"2 52830  53.2154 120.4205 0001601  59.0847 301.0303 15.08833597 21287","COUNTRY_CODE":"US","MEAN_MOTION":"15.08833597","OBJECT_NAME":"STARLINK-4091","ARG_OF_PERICENTER":"59.0847","EPHEMERIS_TYPE":"0","SITE":"AFETR","APOAPSIS":"540.873","INCLINATION":"53.2154","GP_ID":"216863934","TIME_SYSTEM":"UTC","LAUNCH_DATE":"2022-06-17","MEAN_MOTION_DDOT":"0.0000000000000","EPOCH":"2022-11-03T13:39:43.930080","ELEMENT_SET_NO":"999","MEAN_ANOMALY":"301.0303","CENTER_NAME":"EARTH","PERIAPSIS":"538.657","TLE_LINE1":"1 52830U 22062A   22307.56925845  .00000813  00000-0  69208-4 0  9999","MEAN_MOTION_DOT":"0.00000813","OBJECT_TYPE":"PAYLOAD","RA_OF_ASC_NODE":"120.4205","BSTAR":"0.00006920800000","NORAD_CAT_ID":"52830","SEMIMAJOR_AXIS":"6917.900","RCS_SIZE":"LARGE","REV_AT_EPOCH":"2128","ECCENTRICITY":"0.00016010","MEAN_ELEMENT_THEORY":"SGP4","REF_FRAME":"TEME"},{"ELEMENT_SET_NO":"999","MEAN_ANOMALY":"292.3002","CENTER_NAME":"EARTH","PERIAPSIS":"538.739","OBJECT_TYPE":"PAYLOAD","MEAN_MOTION_DOT":"0.00003250","TLE_LINE1":"1 52831U 22062B   22307.58029823  .00003250  00000-0  22217-3 0  9999","RA_OF_ASC_NODE":"120.3757","BSTAR":"0.00022217000000","NORAD_CAT_ID":"52831","SEMIMAJOR_AXIS":"6917.860","RCS_SIZE":"LARGE","REV_AT_EPOCH":"2128","MEAN_ELEMENT_THEORY":"SGP4","ECCENTRICITY":"0.00014250","REF_FRAME":"TEME","CLASSIFICATION_TYPE":"U","FILE":"3644033","OBJECT_ID":"2022-062B","PERIOD":"95.437","TLE_LINE2":"2 52831  53.2153 120.3757 0001425  67.8142 292.3002 15.08846741 21280","COUNTRY_CODE":"US","DECAY_DATE":null,"MEAN_MOTION":"15.08846741","APOAPSIS":"540.711","SITE":"AFETR","EPHEMERIS_TYPE":"0","OBJECT_NAME":"STARLINK-4089","ARG_OF_PERICENTER":"67.8142","INCLINATION":"53.2153","GP_ID":"216863590","TIME_SYSTEM":"UTC","LAUNCH_DATE":"2022-06-17","MEAN_MOTION_DDOT":"0.0000000000000","EPOCH":"2022-11-03T13:55:37.767072"},{"ELEMENT_SET_NO":"999","MEAN_ANOMALY":"309.4211","PERIAPSIS":"538.550","TLE_LINE1":"1 52832U 22062C   22307.84156746  .00000703  00000-0  62249-4 0  9994","MEAN_MOTION_DOT":"0.00000703","OBJECT_TYPE":"PAYLOAD","CENTER_NAME":"EARTH","RA_OF_ASC_NODE":"119.2022","BSTAR":"0.00006224900000","SEMIMAJOR_AXIS":"6917.879","NORAD_CAT_ID":"52832","REF_FRAME":"TEME","RCS_SIZE":"LARGE","REV_AT_EPOCH":"2132","ECCENTRICITY":"0.00017260","MEAN_ELEMENT_THEORY":"SGP4","CLASSIFICATION_TYPE":"U","OBJECT_ID":"2022-062C","PERIOD":"95.438","FILE":"3644033","ARG_OF_PERICENTER":"50.6934","OBJECT_NAME":"STARLINK-4083","EPHEMERIS_TYPE":"0","APOAPSIS":"540.938","SITE":"AFETR","DECAY_DATE":null,"COUNTRY_CODE":"US","TLE_LINE2":"2 52832  53.2169 119.2022 0001726  50.6934 309.4211 15.08840307 21322","MEAN_MOTION":"15.08840307","GP_ID":"216863765","INCLINATION":"53.2169","EPOCH":"2022-11-03T20:11:51.428544","TIME_SYSTEM":"UTC","MEAN_MOTION_DDOT":"0.0000000000000","LAUNCH_DATE":"2022-06-17"},{"DECAY_DATE":null,"TLE_LINE2":"2 52833  53.2163 120.1057 0001613  67.4129 292.7034 15.08841886 21299","COUNTRY_CODE":"US","MEAN_MOTION":"15.08841886","EPHEMERIS_TYPE":"0","ARG_OF_PERICENTER":"67.4129","OBJECT_NAME":"STARLINK-4086","APOAPSIS":"540.855","SITE":"AFETR","CLASSIFICATION_TYPE":"U","OBJECT_ID":"2022-062D","PERIOD":"95.437","FILE":"3644033","TIME_SYSTEM":"UTC","MEAN_MOTION_DDOT":"0.0000000000000","LAUNCH_DATE":"2022-06-17","EPOCH":"2022-11-03T15:20:24.131616","INCLINATION":"53.2163","GP_ID":"216864528","CENTER_NAME":"EARTH","PERIAPSIS":"538.624","MEAN_MOTION_DOT":"0.00002405","TLE_LINE1":"1 52833U 22062D   22307.63916819  .00002405  00000-0  16914-3 0  9995","OBJECT_TYPE":"PAYLOAD","ELEMENT_SET_NO":"999","MEAN_ANOMALY":"292.7034","RCS_SIZE":"LARGE","REV_AT_EPOCH":"2129","ECCENTRICITY":"0.00016130","MEAN_ELEMENT_THEORY":"SGP4","REF_FRAME":"TEME","BSTAR":"0.00016914000000","RA_OF_ASC_NODE":"120.1057","SEMIMAJOR_AXIS":"6917.875","NORAD_CAT_ID":"52833"},{"MEAN_MOTION_DDOT":"0.0000000000000","LAUNCH_DATE":"2022-06-17","TIME_SYSTEM":"UTC","EPOCH":"2022-11-03T13:34:25.647168","INCLINATION":"53.2156","GP_ID":"216864353","MEAN_MOTION":"15.08839514","DECAY_DATE":null,"TLE_LINE2":"2 52834  53.2156 120.4417 0001555  65.4467 294.6687 15.08839514 21282","COUNTRY_CODE":"US","OBJECT_NAME":"STARLINK-4108","ARG_OF_PERICENTER":"65.4467","EPHEMERIS_TYPE":"0","APOAPSIS":"540.823","SITE":"AFETR","PERIOD":"95.438","OBJECT_ID":"2022-062E","FILE":"3644033","CLASSIFICATION_TYPE":"U","MEAN_ELEMENT_THEORY":"SGP4","ECCENTRICITY":"0.00015550","REV_AT_EPOCH":"2128","RCS_SIZE":"LARGE","REF_FRAME":"TEME","SEMIMAJOR_AXIS":"6917.882","NORAD_CAT_ID":"52834","RA_OF_ASC_NODE":"120.4417","BSTAR":"0.00000145150000","CENTER_NAME":"EARTH","TLE_LINE1":"1 52834U 22062E   22307.56557462 -.00000265  00000-0  14515-5 0  9993","MEAN_MOTION_DOT":"-0.00000265","OBJECT_TYPE":"PAYLOAD","PERIAPSIS":"538.671","MEAN_ANOMALY":"294.6687","ELEMENT_SET_NO":"999"},{"ECCENTRICITY":"0.00015790","MEAN_ELEMENT_THEORY":"SGP4","REV_AT_EPOCH":"2129","RCS_SIZE":"LARGE","REF_FRAME":"TEME","NORAD_CAT_ID":"52835","SEMIMAJOR_AXIS":"6917.876","RA_OF_ASC_NODE":"120.1688","BSTAR":"0.00001906800000","CENTER_NAME":"EARTH","MEAN_MOTION_DOT":"0.00000015","TLE_LINE1":"1 52835U 22062F   22307.62813071  .00000015  00000-0  19068-4 0  9991","OBJECT_TYPE":"PAYLOAD","PERIAPSIS":"538.649","MEAN_ANOMALY":"297.9517","ELEMENT_SET_NO":"999","MEAN_MOTION_DDOT":"0.0000000000000","LAUNCH_DATE":"2022-06-17","TIME_SYSTEM":"UTC","EPOCH":"2022-11-03T15:04:30.493344","INCLINATION":"53.2172","GP_ID":"216864009","MEAN_MOTION":"15.08841430","DECAY_DATE":null,"COUNTRY_CODE":"US","TLE_LINE2":"2 52835  53.2172 120.1688 0001579  62.1635 297.9517 15.08841430 21294","ARG_OF_PERICENTER":"62.1635","EPHEMERIS_TYPE":"0","OBJECT_NAME":"STARLINK-4080","APOAPSIS":"540.833","SITE":"AFETR","PERIOD":"95.437","OBJECT_ID":"2022-062F","FILE":"3644033","CLASSIFICATION_TYPE":"U"},{"REV_AT_EPOCH":"2132","RCS_SIZE":"LARGE","ECCENTRICITY":"0.00016560","MEAN_ELEMENT_THEORY":"SGP4","REF_FRAME":"TEME","RA_OF_ASC_NODE":"119.2989","BSTAR":"0.00010397000000","NORAD_CAT_ID":"52836","SEMIMAJOR_AXIS":"6917.848","CENTER_NAME":"EARTH","PERIAPSIS":"538.567","MEAN_MOTION_DOT":"0.00001367","TLE_LINE1":"1 52836U 22062G   22307.82316660  .00001367  00000-0  10397-3 0  9992","OBJECT_TYPE":"PAYLOAD","ELEMENT_SET_NO":"999","MEAN_ANOMALY":"275.9013","TIME_SYSTEM":"UTC","MEAN_MOTION_DDOT":"0.0000000000000","LAUNCH_DATE":"2022-06-17","EPOCH":"2022-11-03T19:45:21.594240","INCLINATION":"53.2176","GP_ID":"216864184","DECAY_DATE":null,"COUNTRY_CODE":"US","TLE_LINE2":"2 52836  53.2176 119.2989 0001656  84.2168 275.9013 15.08850676 21327","MEAN_MOTION":"15.08850676","OBJECT_NAME":"STARLINK-4043","ARG_OF_PERICENTER":"84.2168","EPHEMERIS_TYPE":"0","APOAPSIS":"540.858","SITE":"AFETR","CLASSIFICATION_TYPE":"U","PERIOD":"95.437","OBJECT_ID":"2022-062G","FILE":"3644033"},{"REF_FRAME":"TEME","MEAN_ELEMENT_THEORY":"SGP4","ECCENTRICITY":"0.00020520","RCS_SIZE":"LARGE","REV_AT_EPOCH":"2128","SEMIMAJOR_AXIS":"6917.886","NORAD_CAT_ID":"52837","BSTAR":"0.00011990000000","RA_OF_ASC_NODE":"120.5218","OBJECT_TYPE":"PAYLOAD","MEAN_MOTION_DOT":"0.00001620","TLE_LINE1":"1 52837U 22062H   22307.55085369  .00001620  00000-0  11990-3 0  9994","PERIAPSIS":"538.331","CENTER_NAME":"EARTH","MEAN_ANOMALY":"316.0296","ELEMENT_SET_NO":"999","EPOCH":"2022-11-03T13:13:13.758816","LAUNCH_DATE":"2022-06-17","MEAN_MOTION_DDOT":"0.0000000000000","TIME_SYSTEM":"UTC","GP_ID":"216864808","INCLINATION":"53.2160","APOAPSIS":"541.170","SITE":"AFETR","EPHEMERIS_TYPE":"0","OBJECT_NAME":"STARLINK-4036","ARG_OF_PERICENTER":"44.0859","MEAN_MOTION":"15.08838277","TLE_LINE2":"2 52837  53.2160 120.5218 0002052  44.0859 316.0296 15.08838277 21281","COUNTRY_CODE":"US","DECAY_DATE":null,"FILE":"3644033","PERIOD":"95.438","OBJECT_ID":"2022-062H","CLASSIFICATION_TYPE":"U"}];
